CHUANG XIN 26 (CX-26)   
1 69972U 26158A   26192.48090097 -.00000088  00000+0  30360-4 0  9994
2 69972  49.9853 296.0945 0004896 288.4346  71.6034 14.25145244   171
CZ-10B DEB              
1 69973U 26158B   26192.76166539  .00000080  00000+0  10222-3 0  9996
2 69973  49.9848 294.9117 0005677 299.9157  60.1192 14.24885315   211
CZ-10B R/B              
1 69974U 26158C   26191.83284742  .00000207  00000+0  64180-4 0  9995
2 69974  49.9651 298.6353 0197627 184.6042 175.3074 14.64294088    85
